start=new Date('2023-06-01T00:00:00.000Z').valueOf();
sats=[{"REV_AT_EPOCH":"17757","ELEMENT_SET_NO":"999","SEMIMAJOR_AXIS":"6892.402","CENTER_NAME":"EARTH","ECCENTRICITY":"0.00037070","EPHEMERIS_TYPE":"0","TLE_LINE2":"2 45364  53.0548 356.9745 0003707 125.5464 234.5875 15.17214036177573","RCS_SIZE":"LARGE","RA_OF_ASC_NODE":"356.9745","LAUNCH_DATE":"2020-03-18","DECAY_DATE":null,"OBJECT_TYPE":"PAYLOAD","SITE":"AFETR","TLE_LINE1":"1 45364U 20019E   23151.87687125  .00030227  00000-0  15112-2 0  9996","MEAN_MOTION_DOT":"0.00030227","MEAN_MOTION":"15.17214036","OBJECT_ID":"2020-019E","APOAPSIS":"516.822","ARG_OF_PERICENTER":"125.5464","EPOCH":"2023-05-31T21:02:41.676000","GP_ID":"232924002","COUNTRY_CODE":"US","PERIOD":"94.911","INCLINATION":"53.0548","BSTAR":"0.00151120000000","MEAN_ELEMENT_THEORY":"SGP4","MEAN_ANOMALY":"234.5875","FILE":"3922037","TIME_SYSTEM":"UTC","REF_FRAME":"TEME","MEAN_MOTION_DDOT":"0.0000000000000","CLASSIFICATION_TYPE":"U","NORAD_CAT_ID":"45364","PERIAPSIS":"511.712","OBJECT_NAME":"STARLINK-1313"},{"ELEMENT_SET_NO":"999","SEMIMAJOR_AXIS":"6876.501","CENTER_NAME":"EARTH","REV_AT_EPOCH":"17745","RCS_SIZE":"LARGE","RA_OF_ASC_NODE":"0.7280","EPHEMERIS_TYPE":"0","TLE_LINE2":"2 45365  52.9873   0.7280 0001035  62.8218 297.2882 15.22479632177455","ECCENTRICITY":"0.00010350","OBJECT_ID":"2020-019F","APOAPSIS":"499.078","MEAN_MOTION":"15.22479632","MEAN_MOTION_DOT":"0.00046068","EPOCH":"2023-05-31T21:16:03.834336","ARG_OF_PERICENTER":"62.8218","DECAY_DATE":null,"LAUNCH_DATE":"2020-03-18","TLE_LINE1":"1 45365U 20019F   23151.88615549  .00046068  00000-0  19658-2 0  9998","OBJECT_TYPE":"PAYLOAD","SITE":"AFETR","PERIAPSIS":"497.654","CLASSIFICATION_TYPE":"U","NORAD_CAT_ID":"45365","OBJECT_NAME":"STARLINK-1317","MEAN_ELEMENT_THEORY":"SGP4","MEAN_ANOMALY":"297.2882","GP_ID":"232924254","COUNTRY_CODE":"US","INCLINATION":"52.9873","PERIOD":"94.583","BSTAR":"0.00196580000000","TIME_SYSTEM":"UTC","MEAN_MOTION_DDOT":"0.0000000000000","REF_FRAME":"TEME","FILE":"3922037"},{"EPHEMERIS_TYPE":"0","TLE_LINE2":"2 45366  53.0548  33.1803 0001203  98.6129 261.4996 15.06406130177086","ECCENTRICITY":"0.00012030","RCS_SIZE":"LARGE","RA_OF_ASC_NODE":"33.1803","REV_AT_EPOCH":"17708","SEMIMAJOR_AXIS":"6925.330","CENTER_NAME":"EARTH","ELEMENT_SET_NO":"999","TIME_SYSTEM":"UTC","MEAN_MOTION_DDOT":"0.0000000000000","REF_FRAME":"TEME","FILE":"3922037","MEAN_ELEMENT_THEORY":"SGP4","MEAN_ANOMALY":"261.4996","COUNTRY_CODE":"US","GP_ID":"232924505","PERIOD":"95.592","INCLINATION":"53.0548","BSTAR":"0.00047600000000","OBJECT_NAME":"STARLINK-1262","PERIAPSIS":"546.362","CLASSIFICATION_TYPE":"U","NORAD_CAT_ID":"45366","TLE_LINE1":"1 45366U 20019G   23151.90652786  .00006817  00000-0  47600-3 0  9993","OBJECT_TYPE":"PAYLOAD","SITE":"AFETR","DECAY_DATE":null,"LAUNCH_DATE":"2020-03-18","EPOCH":"2023-05-31T21:45:24.007104","ARG_OF_PERICENTER":"98.6129","OBJECT_ID":"2020-019G","APOAPSIS":"548.028","MEAN_MOTION_DOT":"0.00006817","MEAN_MOTION":"15.06406130"},{"TIME_SYSTEM":"UTC","MEAN_MOTION_DDOT":"0.0000000000000","REF_FRAME":"TEME","FILE":"3922037","MEAN_ELEMENT_THEORY":"SGP4","MEAN_ANOMALY":"270.9668","GP_ID":"232923253","COUNTRY_CODE":"US","INCLINATION":"53.0542","PERIOD":"95.592","BSTAR":"0.00037835000000","OBJECT_NAME":"STARLINK-1273","PERIAPSIS":"546.435","CLASSIFICATION_TYPE":"U","NORAD_CAT_ID":"45367","TLE_LINE1":"1 45367U 20019H   23151.92864997  .00005359  00000-0  37835-3 0  9994","OBJECT_TYPE":"PAYLOAD","SITE":"AFETR","DECAY_DATE":null,"LAUNCH_DATE":"2020-03-18","EPOCH":"2023-05-31T22:17:15.357408","ARG_OF_PERICENTER":"89.1449","OBJECT_ID":"2020-019H","APOAPSIS":"547.982","MEAN_MOTION_DOT":"0.00005359","MEAN_MOTION":"15.06401650","EPHEMERIS_TYPE":"0","TLE_LINE2":"2 45367  53.0542  33.0792 0001117  89.1449 270.9668 15.06401650177084","ECCENTRICITY":"0.00011170","RCS_SIZE":"LARGE","RA_OF_ASC_NODE":"33.0792","REV_AT_EPOCH":"17708","SEMIMAJOR_AXIS":"6925.344","CENTER_NAME":"EARTH","ELEMENT_SET_NO":"999"},{"MEAN_MOTION_DOT":"0.00006397","MEAN_MOTION":"15.06405267","APOAPSIS":"547.890","OBJECT_ID":"2020-019J","ARG_OF_PERICENTER":"92.8606","EPOCH":"2023-05-31T21:34:46.744896","LAUNCH_DATE":"2020-03-18","DECAY_DATE":null,"SITE":"AFETR","OBJECT_TYPE":"PAYLOAD","TLE_LINE1":"1 45368U 20019J   23151.89915214  .00006397  00000-0  44787-3 0  9997","NORAD_CAT_ID":"45368","CLASSIFICATION_TYPE":"U","PERIAPSIS":"546.505","OBJECT_NAME":"STARLINK-1276","INCLINATION":"53.0562","PERIOD":"95.592","BSTAR":"0.00044787000000","COUNTRY_CODE":"US","GP_ID":"232923503","MEAN_ANOMALY":"267.2497","MEAN_ELEMENT_THEORY":"SGP4","FILE":"3922037","MEAN_MOTION_DDOT":"0.0000000000000","REF_FRAME":"TEME","TIME_SYSTEM":"UTC","ELEMENT_SET_NO":"999","CENTER_NAME":"EARTH","SEMIMAJOR_AXIS":"6925.332","REV_AT_EPOCH":"17708","RA_OF_ASC_NODE":"33.2073","RCS_SIZE":"LARGE","ECCENTRICITY":"0.00010000","TLE_LINE2":"2 45368  53.0562  33.2073 0001000  92.8606 267.2497 15.06405267177085","EPHEMERIS_TYPE":"0"},{"RCS_SIZE":"LARGE","RA_OF_ASC_NODE":"32.9179","EPHEMERIS_TYPE":"0","TLE_LINE2":"2 45369  53.0555  32.9179 0001209  83.7831 276.3296 15.06410367177097","ECCENTRICITY":"0.00012090","SEMIMAJOR_AXIS":"6925.317","CENTER_NAME":"EARTH","ELEMENT_SET_NO":"999","REV_AT_EPOCH":"17709","OBJECT_NAME":"STARLINK-1277","PERIAPSIS":"546.345","CLASSIFICATION_TYPE":"U","NORAD_CAT_ID":"45369","TIME_SYSTEM":"UTC","MEAN_MOTION_DDOT":"0.0000000000000","REF_FRAME":"TEME","FILE":"3922037","MEAN_ELEMENT_THEORY":"SGP4","MEAN_ANOMALY":"276.3296","GP_ID":"232924754","COUNTRY_CODE":"US","PERIOD":"95.591","BSTAR":"0.00061816000000","INCLINATION":"53.0555","EPOCH":"2023-05-31T23:08:57.661728","ARG_OF_PERICENTER":"83.7831","OBJECT_ID":"2020-019K","APOAPSIS":"548.019","MEAN_MOTION_DOT":"0.00008940","MEAN_MOTION":"15.06410367","TLE_LINE1":"1 45369U 20019K   23151.96455627  .00008940  00000-0  61816-3 0  9991","OBJECT_TYPE":"PAYLOAD","SITE":"AFETR","DECAY_DATE":null,"LAUNCH_DATE":"2020-03-18"},{"ARG_OF_PERICENTER":"85.2536","EPOCH":"2023-05-31T22:54:24.663168","MEAN_MOTION":"15.06402163","MEAN_MOTION_DOT":"0.00007130","OBJECT_ID":"2020-019L","APOAPSIS":"548.058","OBJECT_TYPE":"PAYLOAD","SITE":"AFETR","TLE_LINE1":"1 45370U 20019L   23151.95445212  .00007130  00000-0  49701-3 0  9990","LAUNCH_DATE":"2020-03-18","DECAY_DATE":null,"OBJECT_NAME":"STARLINK-1281","CLASSIFICATION_TYPE":"U","NORAD_CAT_ID":"45370","PERIAPSIS":"546.356","FILE":"3922037","TIME_SYSTEM":"UTC","REF_FRAME":"TEME","MEAN_MOTION_DDOT":"0.0000000000000","GP_ID":"232925005","COUNTRY_CODE":"US","PERIOD":"95.592","BSTAR":"0.00049701000000","INCLINATION":"53.0559","MEAN_ELEMENT_THEORY":"SGP4","MEAN_ANOMALY":"274.8593","SEMIMAJOR_AXIS":"6925.342","CENTER_NAME":"EARTH","ELEMENT_SET_NO":"999","REV_AT_EPOCH":"17709","RCS_SIZE":"LARGE","RA_OF_ASC_NODE":"32.9592","ECCENTRICITY":"0.00012290","EPHEMERIS_TYPE":"0","TLE_LINE2":"2 45370  53.0559  32.9592 0001229  85.2536 274.8593 15.06402163177091"},{"ARG_OF_PERICENTER":"123.7867","EPOCH":"2023-05-31T21:59:57.236352","MEAN_MOTION_DOT":"0.00013240","MEAN_MOTION":"15.06413729","APOAPSIS":"547.994","OBJECT_ID":"2020-019M","SITE":"AFETR","OBJECT_TYPE":"PAYLOAD","TLE_LINE1":"1 45371U 20019M   23151.91663468  .00013240  00000-0  90573-3 0  9994","LAUNCH_DATE":"2020-03-18","DECAY_DATE":null,"OBJECT_NAME":"STARLINK-1287","NORAD_CAT_ID":"45371","CLASSIFICATION_TYPE":"U","PERIAPSIS":"546.349","FILE":"3922037","MEAN_MOTION_DDOT":"0.0000000000000","REF_FRAME":"TEME","TIME_SYSTEM":"UTC","PERIOD":"95.591","INCLINATION":"53.0555","BSTAR":"0.00090573000000","GP_ID":"232923753","COUNTRY_CODE":"US","MEAN_ELEMENT_THEORY":"SGP4","MEAN_ANOMALY":"236.3235","CENTER_NAME":"EARTH","SEMIMAJOR_AXIS":"6925.306","ELEMENT_SET_NO":"999","REV_AT_EPOCH":"17708","RA_OF_ASC_NODE":"33.1231","RCS_SIZE":"LARGE","ECCENTRICITY":"0.00011870","TLE_LINE2":"2 45371  53.0555  33.1231 0001187 123.7867 236.3235 15.06413729177084","EPHEMERIS_TYPE":"0"},{"ECCENTRICITY":"0.00011940","EPHEMERIS_TYPE":"0","TLE_LINE2":"2 45372  53.0551  33.0651 0001194  85.2306 274.8820 15.06401959177083","RA_OF_ASC_NODE":"33.0651","RCS_SIZE":"LARGE","REV_AT_EPOCH":"17708","SEMIMAJOR_AXIS":"6925.343","CENTER_NAME":"EARTH","ELEMENT_SET_NO":"999","FILE":"3922037","TIME_SYSTEM":"UTC","REF_FRAME":"TEME","MEAN_MOTION_DDOT":"0.0000000000000","GP_ID":"232924003","COUNTRY_CODE":"US","INCLINATION":"53.0551","PERIOD":"95.592","BSTAR":"0.00040796000000","MEAN_ELEMENT_THEORY":"SGP4","MEAN_ANOMALY":"274.8820","OBJECT_NAME":"STARLINK-1288","CLASSIFICATION_TYPE":"U","NORAD_CAT_ID":"45372","PERIAPSIS":"546.381","OBJECT_TYPE":"PAYLOAD","SITE":"AFETR","TLE_LINE1":"1 45372U 20019N   23151.93232891  .00005801  00000-0  40796-3 0  9995","LAUNCH_DATE":"2020-03-18","DECAY_DATE":null,"ARG_OF_PERICENTER":"85.2306","EPOCH":"2023-05-31T22:22:33.217824","MEAN_MOTION_DOT":"0.00005801","MEAN_MOTION":"15.06401959","OBJECT_ID":"2020-019N","APOAPSIS":"548.034"},{"REV_AT_EPOCH":"17708","CENTER_NAME":"EARTH","SEMIMAJOR_AXIS":"6925.326","ELEMENT_SET_NO":"999","ECCENTRICITY":"0.00011430","TLE_LINE2":"2 45373  53.0545  33.1482 0001143 124.4555 235.6542 15.06407226177085","EPHEMERIS_TYPE":"0","RCS_SIZE":"LARGE","RA_OF_ASC_NODE":"33.1482","SITE":"AFETR","OBJECT_TYPE":"PAYLOAD","TLE_LINE1":"1 45373U 20019P   23151.91389859  .00020796  00000-0  14106-2 0  9996","LAUNCH_DATE":"2020-03-18","DECAY_DATE":null,"ARG_OF_PERICENTER":"124.4555","EPOCH":"2023-05-31T21:56:00.838176","MEAN_MOTION_DOT":"0.00020796","MEAN_MOTION":"15.06407226","APOAPSIS":"547.983","OBJECT_ID":"2020-019P","FILE":"3922037","REF_FRAME":"TEME","MEAN_MOTION_DDOT":"0.0000000000000","TIME_SYSTEM":"UTC","INCLINATION":"53.0545","PERIOD":"95.592","BSTAR":"0.00141060000000","COUNTRY_CODE":"US","GP_ID":"232924255","MEAN_ELEMENT_THEORY":"SGP4","MEAN_ANOMALY":"235.6542","OBJECT_NAME":"STARLINK-1295","NORAD_CAT_ID":"45373","CLASSIFICATION_TYPE":"U","PERIAPSIS":"546.400"}];
